{"type":"FeatureCollection","name":"gamma_jrc_corse","crs":{"type":"name","properties":{"name":"urn:ogc:def:crs:OGC:1.3:CRS84"}},"metadata":{"description":"Fond gamma terrestre régional (débit de dose absorbée air) — fenêtre Corse, maille 10 km","grandeur":"Débit de dose gamma terrestre absorbée dans l'air (nGy/h). NB : Téléray/ASNR affiche du nSv/h (H*(10)) ; JRC/Euratom assimilent ≈ 1 mais la grandeur est explicitée ici.","statut":"INDICATIF, NON métrologique, aucune lecture sanitaire — couche de contexte hors modèle Tellux (NCRP-001 gelé).","source":"JRC European Atlas of Natural Radiation (EANR) — 07. Terrestrial gamma dose","source_dataset_id":"jrc-eanr-07_terrestrial-gamma-dose","source_doi":"10.2905/JRC.SBESAC0","source_fichier":"tgdrngyh.zip (ESRI ArcInfo Grid, LAEA ETRS89 centre 48N/9E, 10 km) — reprojeté WGS84","attribution":"© European Union, JRC — European Atlas of Natural Radiation (Tollefsen, De Cort, Cinelli, Gruber, Bossew). Licence CC BY 4.0.","licence":"Creative Commons Attribution 4.0 International (CC BY 4.0)","reference_methode":"Bossew et al. 2016, DOI 10.1016/j.jenvrad.2016.02.013","reperes_lecture_ngyh":"~59 (moyenne mondiale UNSCEAR) · 70-200 (terrains granitiques) — repères, pas des seuils","classe_indicative_bornes_ngyh":[50.0,75.0,120.0],"date_production":"2026-07-05","features_total":88,"tgdr_ngyh_min":60.4,"tgdr_ngyh_max":108.8,"tgdr_ngyh_median":84.2},"features":[{"type":"Feature","properties":{"tgdr_ngyh":60.4,"classe_indicative":2},"geometry":{"type":"Polygon","coordinates":[[[9.3679,43.04945],[9.49053,43.04896],[9.4898,42.95887],[9.36735,42.95936],[9.3679,43.04945]]]}},{"type":"Feature","properties":{"tgdr_ngyh":60.7,"classe_indicative":2},"geometry":{"type":"Polygon","coordinates":[[[9.36735,42.95936],[9.4898,42.95887],[9.48907,42.86877],[9.36681,42.86926],[9.36735,42.95936]]]}},{"type":"Feature","properties":{"tgdr_ngyh":63.9,"classe_indicative":2},"geometry":{"type":"Polygon","coordinates":[[[9.36681,42.86926],[9.48907,42.86877],[9.48835,42.77867],[9.36626,42.77916],[9.36681,42.86926]]]}},{"type":"Feature","properties":{"tgdr_ngyh":66.6,"classe_indicative":2},"geometry":{"type":"Polygon","coordinates":[[[9.36626,42.77916],[9.48835,42.77867],[9.48762,42.68857],[9.36572,42.68906],[9.36626,42.77916]]]}},{"type":"Feature","properties":{"tgdr_ngyh":71.8,"classe_indicative":2},"geometry":{"type":"Polygon","coordinates":[[[9.0,42.68968],[9.12191,42.68961],[9.12173,42.5995],[9.0,42.59957],[9.0,42.68968]]]}},{"type":"Feature","properties":{"tgdr_ngyh":70.3,"classe_indicative":2},"geometry":{"type":"Polygon","coordinates":[[[9.12191,42.68961],[9.24381,42.68941],[9.24345,42.5993],[9.12173,42.5995],[9.12191,42.68961]]]}},{"type":"Feature","properties":{"tgdr_ngyh":68.5,"classe_indicative":2},"geometry":{"type":"Polygon","coordinates":[[[9.24381,42.68941],[9.36572,42.68906],[9.36518,42.59895],[9.24345,42.5993],[9.24381,42.68941]]]}},{"type":"Feature","properties":{"tgdr_ngyh":66.9,"classe_indicative":2},"geometry":{"type":"Polygon","coordinates":[[[9.36572,42.68906],[9.48762,42.68857],[9.4869,42.59846],[9.36518,42.59895],[9.36572,42.68906]]]}},{"type":"Feature","properties":{"tgdr_ngyh":81.5,"classe_indicative":3},"geometry":{"type":"Polygon","coordinates":[[[8.75655,42.5993],[8.87827,42.5995],[8.87845,42.50939],[8.75691,42.50918],[8.75655,42.5993]]]}},{"type":"Feature","properties":{"tgdr_ngyh":80.1,"classe_indicative":3},"geometry":{"type":"Polygon","coordinates":[[[8.87827,42.5995],[9.0,42.59957],[9.0,42.50946],[8.87845,42.50939],[8.87827,42.5995]]]}},{"type":"Feature","properties":{"tgdr_ngyh":73.3,"classe_indicative":2},"geometry":{"type":"Polygon","coordinates":[[[9.0,42.59957],[9.12173,42.5995],[9.12155,42.50939],[9.0,42.50946],[9.0,42.59957]]]}},{"type":"Feature","properties":{"tgdr_ngyh":69.6,"classe_indicative":2},"geometry":{"type":"Polygon","coordinates":[[[9.12173,42.5995],[9.24345,42.5993],[9.24309,42.50918],[9.12155,42.50939],[9.12173,42.5995]]]}},{"type":"Feature","properties":{"tgdr_ngyh":66.6,"classe_indicative":2},"geometry":{"type":"Polygon","coordinates":[[[9.24345,42.5993],[9.36518,42.59895],[9.36464,42.50884],[9.24309,42.50918],[9.24345,42.5993]]]}},{"type":"Feature","properties":{"tgdr_ngyh":66.9,"classe_indicative":2},"geometry":{"type":"Polygon","coordinates":[[[9.36518,42.59895],[9.4869,42.59846],[9.48619,42.50835],[9.36464,42.50884],[9.36518,42.59895]]]}},{"type":"Feature","properties":{"tgdr_ngyh":83.3,"classe_indicative":3},"geometry":{"type":"Polygon","coordinates":[[[8.63536,42.50884],[8.75691,42.50918],[8.75726,42.41906],[8.63589,42.41872],[8.63536,42.50884]]]}},{"type":"Feature","properties":{"tgdr_ngyh":82.3,"classe_indicative":3},"geometry":{"type":"Polygon","coordinates":[[[8.75691,42.50918],[8.87845,42.50939],[8.87863,42.41927],[8.75726,42.41906],[8.75691,42.50918]]]}},{"type":"Feature","properties":{"tgdr_ngyh":81.0,"classe_indicative":3},"geometry":{"type":"Polygon","coordinates":[[[8.87845,42.50939],[9.0,42.50946],[9.0,42.41934],[8.87863,42.41927],[8.87845,42.50939]]]}},{"type":"Feature","properties":{"tgdr_ngyh":80.0,"classe_indicative":3},"geometry":{"type":"Polygon","coordinates":[[[9.0,42.50946],[9.12155,42.50939],[9.12137,42.41927],[9.0,42.41934],[9.0,42.50946]]]}},{"type":"Feature","properties":{"tgdr_ngyh":67.2,"classe_indicative":2},"geometry":{"type":"Polygon","coordinates":[[[9.12155,42.50939],[9.24309,42.50918],[9.24274,42.41906],[9.12137,42.41927],[9.12155,42.50939]]]}},{"type":"Feature","properties":{"tgdr_ngyh":62.6,"classe_indicative":2},"geometry":{"type":"Polygon","coordinates":[[[9.24309,42.50918],[9.36464,42.50884],[9.36411,42.41872],[9.24274,42.41906],[9.24309,42.50918]]]}},{"type":"Feature","properties":{"tgdr_ngyh":66.1,"classe_indicative":2},"geometry":{"type":"Polygon","coordinates":[[[9.36464,42.50884],[9.48619,42.50835],[9.48547,42.41823],[9.36411,42.41872],[9.36464,42.50884]]]}},{"type":"Feature","properties":{"tgdr_ngyh":84.9,"classe_indicative":3},"geometry":{"type":"Polygon","coordinates":[[[8.51453,42.41823],[8.63589,42.41872],[8.63643,42.3286],[8.51524,42.32811],[8.51453,42.41823]]]}},{"type":"Feature","properties":{"tgdr_ngyh":84.2,"classe_indicative":3},"geometry":{"type":"Polygon","coordinates":[[[8.63589,42.41872],[8.75726,42.41906],[8.75762,42.32894],[8.63643,42.3286],[8.63589,42.41872]]]}},{"type":"Feature","properties":{"tgdr_ngyh":83.2,"classe_indicative":3},"geometry":{"type":"Polygon","coordinates":[[[8.75726,42.41906],[8.87863,42.41927],[8.87881,42.32915],[8.75762,42.32894],[8.75726,42.41906]]]}},{"type":"Feature","properties":{"tgdr_ngyh":81.8,"classe_indicative":3},"geometry":{"type":"Polygon","coordinates":[[[8.87863,42.41927],[9.0,42.41934],[9.0,42.32922],[8.87881,42.32915],[8.87863,42.41927]]]}},{"type":"Feature","properties":{"tgdr_ngyh":79.4,"classe_indicative":3},"geometry":{"type":"Polygon","coordinates":[[[9.0,42.41934],[9.12137,42.41927],[9.12119,42.32915],[9.0,42.32922],[9.0,42.41934]]]}},{"type":"Feature","properties":{"tgdr_ngyh":68.7,"classe_indicative":2},"geometry":{"type":"Polygon","coordinates":[[[9.12137,42.41927],[9.24274,42.41906],[9.24238,42.32894],[9.12119,42.32915],[9.12137,42.41927]]]}},{"type":"Feature","properties":{"tgdr_ngyh":64.6,"classe_indicative":2},"geometry":{"type":"Polygon","coordinates":[[[9.24274,42.41906],[9.36411,42.41872],[9.36357,42.3286],[9.24238,42.32894],[9.24274,42.41906]]]}},{"type":"Feature","properties":{"tgdr_ngyh":67.6,"classe_indicative":2},"geometry":{"type":"Polygon","coordinates":[[[9.36411,42.41872],[9.48547,42.41823],[9.48476,42.32811],[9.36357,42.3286],[9.36411,42.41872]]]}},{"type":"Feature","properties":{"tgdr_ngyh":85.3,"classe_indicative":3},"geometry":{"type":"Polygon","coordinates":[[[8.63643,42.3286],[8.75762,42.32894],[8.75797,42.23881],[8.63696,42.23847],[8.63643,42.3286]]]}},{"type":"Feature","properties":{"tgdr_ngyh":83.6,"classe_indicative":3},"geometry":{"type":"Polygon","coordinates":[[[8.75762,42.32894],[8.87881,42.32915],[8.87899,42.23902],[8.75797,42.23881],[8.75762,42.32894]]]}},{"type":"Feature","properties":{"tgdr_ngyh":81.9,"classe_indicative":3},"geometry":{"type":"Polygon","coordinates":[[[8.87881,42.32915],[9.0,42.32922],[9.0,42.23909],[8.87899,42.23902],[8.87881,42.32915]]]}},{"type":"Feature","properties":{"tgdr_ngyh":78.8,"classe_indicative":3},"geometry":{"type":"Polygon","coordinates":[[[9.0,42.32922],[9.12119,42.32915],[9.12101,42.23902],[9.0,42.23909],[9.0,42.32922]]]}},{"type":"Feature","properties":{"tgdr_ngyh":74.4,"classe_indicative":2},"geometry":{"type":"Polygon","coordinates":[[[9.12119,42.32915],[9.24238,42.32894],[9.24203,42.23881],[9.12101,42.23902],[9.12119,42.32915]]]}},{"type":"Feature","properties":{"tgdr_ngyh":70.1,"classe_indicative":2},"geometry":{"type":"Polygon","coordinates":[[[9.24238,42.32894],[9.36357,42.3286],[9.36304,42.23847],[9.24203,42.23881],[9.24238,42.32894]]]}},{"type":"Feature","properties":{"tgdr_ngyh":69.7,"classe_indicative":2},"geometry":{"type":"Polygon","coordinates":[[[9.36357,42.3286],[9.48476,42.32811],[9.48405,42.23799],[9.36304,42.23847],[9.36357,42.3286]]]}},{"type":"Feature","properties":{"tgdr_ngyh":71.1,"classe_indicative":2},"geometry":{"type":"Polygon","coordinates":[[[9.48476,42.32811],[9.60595,42.32749],[9.60506,42.23737],[9.48405,42.23799],[9.48476,42.32811]]]}},{"type":"Feature","properties":{"tgdr_ngyh":84.6,"classe_indicative":3},"geometry":{"type":"Polygon","coordinates":[[[8.63696,42.23847],[8.75797,42.23881],[8.75833,42.14868],[8.63749,42.14834],[8.63696,42.23847]]]}},{"type":"Feature","properties":{"tgdr_ngyh":84.9,"classe_indicative":3},"geometry":{"type":"Polygon","coordinates":[[[8.75797,42.23881],[8.87899,42.23902],[8.87916,42.14889],[8.75833,42.14868],[8.75797,42.23881]]]}},{"type":"Feature","properties":{"tgdr_ngyh":84.9,"classe_indicative":3},"geometry":{"type":"Polygon","coordinates":[[[8.87899,42.23902],[9.0,42.23909],[9.0,42.14896],[8.87916,42.14889],[8.87899,42.23902]]]}},{"type":"Feature","properties":{"tgdr_ngyh":81.1,"classe_indicative":3},"geometry":{"type":"Polygon","coordinates":[[[9.0,42.23909],[9.12101,42.23902],[9.12084,42.14889],[9.0,42.14896],[9.0,42.23909]]]}},{"type":"Feature","properties":{"tgdr_ngyh":77.8,"classe_indicative":3},"geometry":{"type":"Polygon","coordinates":[[[9.12101,42.23902],[9.24203,42.23881],[9.24167,42.14868],[9.12084,42.14889],[9.12101,42.23902]]]}},{"type":"Feature","properties":{"tgdr_ngyh":76.1,"classe_indicative":3},"geometry":{"type":"Polygon","coordinates":[[[9.24203,42.23881],[9.36304,42.23847],[9.36251,42.14834],[9.24167,42.14868],[9.24203,42.23881]]]}},{"type":"Feature","properties":{"tgdr_ngyh":73.2,"classe_indicative":2},"geometry":{"type":"Polygon","coordinates":[[[9.36304,42.23847],[9.48405,42.23799],[9.48335,42.14786],[9.36251,42.14834],[9.36304,42.23847]]]}},{"type":"Feature","properties":{"tgdr_ngyh":72.7,"classe_indicative":2},"geometry":{"type":"Polygon","coordinates":[[[9.48405,42.23799],[9.60506,42.23737],[9.60418,42.14724],[9.48335,42.14786],[9.48405,42.23799]]]}},{"type":"Feature","properties":{"tgdr_ngyh":85.9,"classe_indicative":3},"geometry":{"type":"Polygon","coordinates":[[[8.75833,42.14868],[8.87916,42.14889],[8.87934,42.05875],[8.75868,42.05854],[8.75833,42.14868]]]}},{"type":"Feature","properties":{"tgdr_ngyh":85.5,"classe_indicative":3},"geometry":{"type":"Polygon","coordinates":[[[8.87916,42.14889],[9.0,42.14896],[9.0,42.05882],[8.87934,42.05875],[8.87916,42.14889]]]}},{"type":"Feature","properties":{"tgdr_ngyh":83.3,"classe_indicative":3},"geometry":{"type":"Polygon","coordinates":[[[9.0,42.14896],[9.12084,42.14889],[9.12066,42.05875],[9.0,42.05882],[9.0,42.14896]]]}},{"type":"Feature","properties":{"tgdr_ngyh":81.1,"classe_indicative":3},"geometry":{"type":"Polygon","coordinates":[[[9.12084,42.14889],[9.24167,42.14868],[9.24132,42.05854],[9.12066,42.05875],[9.12084,42.14889]]]}},{"type":"Feature","properties":{"tgdr_ngyh":79.8,"classe_indicative":3},"geometry":{"type":"Polygon","coordinates":[[[9.24167,42.14868],[9.36251,42.14834],[9.36198,42.0582],[9.24132,42.05854],[9.24167,42.14868]]]}},{"type":"Feature","properties":{"tgdr_ngyh":79.2,"classe_indicative":3},"geometry":{"type":"Polygon","coordinates":[[[9.36251,42.14834],[9.48335,42.14786],[9.48264,42.05772],[9.36198,42.0582],[9.36251,42.14834]]]}},{"type":"Feature","properties":{"tgdr_ngyh":79.2,"classe_indicative":3},"geometry":{"type":"Polygon","coordinates":[[[9.48335,42.14786],[9.60418,42.14724],[9.6033,42.0571],[9.48264,42.05772],[9.48335,42.14786]]]}},{"type":"Feature","properties":{"tgdr_ngyh":86.0,"classe_indicative":3},"geometry":{"type":"Polygon","coordinates":[[[8.63802,42.0582],[8.75868,42.05854],[8.75903,41.9684],[8.63854,41.96806],[8.63802,42.0582]]]}},{"type":"Feature","properties":{"tgdr_ngyh":86.2,"classe_indicative":3},"geometry":{"type":"Polygon","coordinates":[[[8.75868,42.05854],[8.87934,42.05875],[8.87951,41.96861],[8.75903,41.9684],[8.75868,42.05854]]]}},{"type":"Feature","properties":{"tgdr_ngyh":86.9,"classe_indicative":3},"geometry":{"type":"Polygon","coordinates":[[[8.87934,42.05875],[9.0,42.05882],[9.0,41.96868],[8.87951,41.96861],[8.87934,42.05875]]]}},{"type":"Feature","properties":{"tgdr_ngyh":85.8,"classe_indicative":3},"geometry":{"type":"Polygon","coordinates":[[[9.0,42.05882],[9.12066,42.05875],[9.12049,41.96861],[9.0,41.96868],[9.0,42.05882]]]}},{"type":"Feature","properties":{"tgdr_ngyh":85.7,"classe_indicative":3},"geometry":{"type":"Polygon","coordinates":[[[9.12066,42.05875],[9.24132,42.05854],[9.24097,41.9684],[9.12049,41.96861],[9.12066,42.05875]]]}},{"type":"Feature","properties":{"tgdr_ngyh":85.0,"classe_indicative":3},"geometry":{"type":"Polygon","coordinates":[[[9.24132,42.05854],[9.36198,42.0582],[9.36146,41.96806],[9.24097,41.9684],[9.24132,42.05854]]]}},{"type":"Feature","properties":{"tgdr_ngyh":84.8,"classe_indicative":3},"geometry":{"type":"Polygon","coordinates":[[[9.36198,42.0582],[9.48264,42.05772],[9.48194,41.96758],[9.36146,41.96806],[9.36198,42.0582]]]}},{"type":"Feature","properties":{"tgdr_ngyh":87.1,"classe_indicative":3},"geometry":{"type":"Polygon","coordinates":[[[8.63854,41.96806],[8.75903,41.9684],[8.75938,41.87825],[8.63906,41.87791],[8.63854,41.96806]]]}},{"type":"Feature","properties":{"tgdr_ngyh":88.0,"classe_indicative":3},"geometry":{"type":"Polygon","coordinates":[[[8.75903,41.9684],[8.87951,41.96861],[8.87969,41.87846],[8.75938,41.87825],[8.75903,41.9684]]]}},{"type":"Feature","properties":{"tgdr_ngyh":88.6,"classe_indicative":3},"geometry":{"type":"Polygon","coordinates":[[[8.87951,41.96861],[9.0,41.96868],[9.0,41.87853],[8.87969,41.87846],[8.87951,41.96861]]]}},{"type":"Feature","properties":{"tgdr_ngyh":88.2,"classe_indicative":3},"geometry":{"type":"Polygon","coordinates":[[[9.0,41.96868],[9.12049,41.96861],[9.12031,41.87846],[9.0,41.87853],[9.0,41.96868]]]}},{"type":"Feature","properties":{"tgdr_ngyh":88.4,"classe_indicative":3},"geometry":{"type":"Polygon","coordinates":[[[9.12049,41.96861],[9.24097,41.9684],[9.24062,41.87825],[9.12031,41.87846],[9.12049,41.96861]]]}},{"type":"Feature","properties":{"tgdr_ngyh":88.2,"classe_indicative":3},"geometry":{"type":"Polygon","coordinates":[[[9.24097,41.9684],[9.36146,41.96806],[9.36094,41.87791],[9.24062,41.87825],[9.24097,41.9684]]]}},{"type":"Feature","properties":{"tgdr_ngyh":89.6,"classe_indicative":3},"geometry":{"type":"Polygon","coordinates":[[[8.75938,41.87825],[8.87969,41.87846],[8.87986,41.78831],[8.75972,41.7881],[8.75938,41.87825]]]}},{"type":"Feature","properties":{"tgdr_ngyh":90.9,"classe_indicative":3},"geometry":{"type":"Polygon","coordinates":[[[8.87969,41.87846],[9.0,41.87853],[9.0,41.78837],[8.87986,41.78831],[8.87969,41.87846]]]}},{"type":"Feature","properties":{"tgdr_ngyh":91.1,"classe_indicative":3},"geometry":{"type":"Polygon","coordinates":[[[9.0,41.87853],[9.12031,41.87846],[9.12014,41.78831],[9.0,41.78837],[9.0,41.87853]]]}},{"type":"Feature","properties":{"tgdr_ngyh":91.6,"classe_indicative":3},"geometry":{"type":"Polygon","coordinates":[[[9.12031,41.87846],[9.24062,41.87825],[9.24028,41.7881],[9.12014,41.78831],[9.12031,41.87846]]]}},{"type":"Feature","properties":{"tgdr_ngyh":91.3,"classe_indicative":3},"geometry":{"type":"Polygon","coordinates":[[[9.24062,41.87825],[9.36094,41.87791],[9.36041,41.78776],[9.24028,41.7881],[9.24062,41.87825]]]}},{"type":"Feature","properties":{"tgdr_ngyh":90.3,"classe_indicative":3},"geometry":{"type":"Polygon","coordinates":[[[8.63959,41.78776],[8.75972,41.7881],[8.76007,41.69794],[8.6401,41.6976],[8.63959,41.78776]]]}},{"type":"Feature","properties":{"tgdr_ngyh":91.5,"classe_indicative":3},"geometry":{"type":"Polygon","coordinates":[[[8.75972,41.7881],[8.87986,41.78831],[8.88003,41.69815],[8.76007,41.69794],[8.75972,41.7881]]]}},{"type":"Feature","properties":{"tgdr_ngyh":94.4,"classe_indicative":3},"geometry":{"type":"Polygon","coordinates":[[[8.87986,41.78831],[9.0,41.78837],[9.0,41.69822],[8.88003,41.69815],[8.87986,41.78831]]]}},{"type":"Feature","properties":{"tgdr_ngyh":95.4,"classe_indicative":3},"geometry":{"type":"Polygon","coordinates":[[[9.0,41.78837],[9.12014,41.78831],[9.11997,41.69815],[9.0,41.69822],[9.0,41.78837]]]}},{"type":"Feature","properties":{"tgdr_ngyh":95.7,"classe_indicative":3},"geometry":{"type":"Polygon","coordinates":[[[9.12014,41.78831],[9.24028,41.7881],[9.23993,41.69794],[9.11997,41.69815],[9.12014,41.78831]]]}},{"type":"Feature","properties":{"tgdr_ngyh":95.0,"classe_indicative":3},"geometry":{"type":"Polygon","coordinates":[[[9.24028,41.7881],[9.36041,41.78776],[9.3599,41.6976],[9.23993,41.69794],[9.24028,41.7881]]]}},{"type":"Feature","properties":{"tgdr_ngyh":97.7,"classe_indicative":3},"geometry":{"type":"Polygon","coordinates":[[[8.88003,41.69815],[9.0,41.69822],[9.0,41.60805],[8.88021,41.60799],[8.88003,41.69815]]]}},{"type":"Feature","properties":{"tgdr_ngyh":100.2,"classe_indicative":3},"geometry":{"type":"Polygon","coordinates":[[[9.0,41.69822],[9.11997,41.69815],[9.11979,41.60799],[9.0,41.60805],[9.0,41.69822]]]}},{"type":"Feature","properties":{"tgdr_ngyh":101.0,"classe_indicative":3},"geometry":{"type":"Polygon","coordinates":[[[9.11997,41.69815],[9.23993,41.69794],[9.23959,41.60778],[9.11979,41.60799],[9.11997,41.69815]]]}},{"type":"Feature","properties":{"tgdr_ngyh":98.9,"classe_indicative":3},"geometry":{"type":"Polygon","coordinates":[[[9.23993,41.69794],[9.3599,41.6976],[9.35938,41.60744],[9.23959,41.60778],[9.23993,41.69794]]]}},{"type":"Feature","properties":{"tgdr_ngyh":94.3,"classe_indicative":3},"geometry":{"type":"Polygon","coordinates":[[[8.76041,41.60778],[8.88021,41.60799],[8.88038,41.51782],[8.76076,41.51761],[8.76041,41.60778]]]}},{"type":"Feature","properties":{"tgdr_ngyh":100.1,"classe_indicative":3},"geometry":{"type":"Polygon","coordinates":[[[8.88021,41.60799],[9.0,41.60805],[9.0,41.51788],[8.88038,41.51782],[8.88021,41.60799]]]}},{"type":"Feature","properties":{"tgdr_ngyh":105.3,"classe_indicative":3},"geometry":{"type":"Polygon","coordinates":[[[9.0,41.60805],[9.11979,41.60799],[9.11962,41.51782],[9.0,41.51788],[9.0,41.60805]]]}},{"type":"Feature","properties":{"tgdr_ngyh":108.8,"classe_indicative":3},"geometry":{"type":"Polygon","coordinates":[[[9.11979,41.60799],[9.23959,41.60778],[9.23924,41.51761],[9.11962,41.51782],[9.11979,41.60799]]]}},{"type":"Feature","properties":{"tgdr_ngyh":103.1,"classe_indicative":3},"geometry":{"type":"Polygon","coordinates":[[[9.23959,41.60778],[9.35938,41.60744],[9.35887,41.51727],[9.23924,41.51761],[9.23959,41.60778]]]}},{"type":"Feature","properties":{"tgdr_ngyh":106.1,"classe_indicative":3},"geometry":{"type":"Polygon","coordinates":[[[9.0,41.51788],[9.11962,41.51782],[9.11945,41.42764],[9.0,41.42771],[9.0,41.51788]]]}},{"type":"Feature","properties":{"tgdr_ngyh":108.5,"classe_indicative":3},"geometry":{"type":"Polygon","coordinates":[[[9.11962,41.51782],[9.23924,41.51761],[9.2389,41.42744],[9.11945,41.42764],[9.11962,41.51782]]]}},{"type":"Feature","properties":{"tgdr_ngyh":103.6,"classe_indicative":3},"geometry":{"type":"Polygon","coordinates":[[[9.11945,41.42764],[9.2389,41.42744],[9.23856,41.33726],[9.11928,41.33746],[9.11945,41.42764]]]}}]}